{
  "links" : {
    "next" : "https://api.nasa.gov/neo/rest/v1/feed?start_date=1996-02-16&end_date=1996-02-16&detailed=true&api_key=t0TVs3DtDT2H8Oy2Zy8m2eVrNsAVKAexjcZXUckd",
    "prev" : "https://api.nasa.gov/neo/rest/v1/feed?start_date=1996-02-14&end_date=1996-02-14&detailed=true&api_key=t0TVs3DtDT2H8Oy2Zy8m2eVrNsAVKAexjcZXUckd",
    "self" : "https://api.nasa.gov/neo/rest/v1/feed?start_date=1996-02-15&end_date=1996-02-15&detailed=true&api_key=t0TVs3DtDT2H8Oy2Zy8m2eVrNsAVKAexjcZXUckd"
  },
  "element_count" : 4,
  "near_earth_objects" : {
    "1996-02-15" : [ {
      "links" : {
        "self" : "https://api.nasa.gov/neo/rest/v1/neo/2424965?api_key=t0TVs3DtDT2H8Oy2Zy8m2eVrNsAVKAexjcZXUckd"
      },
      "neo_reference_id" : "2424965",
      "name" : "424965 (2009 AM15)",
      "nasa_jpl_url" : "http://ssd.jpl.nasa.gov/sbdb.cgi?sstr=2424965",
      "absolute_magnitude_h" : 18.8,
      "estimated_diameter" : {
        "kilometers" : {
          "estimated_diameter_min" : 0.4619074603,
          "estimated_diameter_max" : 1.0328564805
        },
        "meters" : {
          "estimated_diameter_min" : 461.9074602816,
          "estimated_diameter_max" : 1032.8564805039
        },
        "miles" : {
          "estimated_diameter_min" : 0.2870159005,
          "estimated_diameter_max" : 0.6417870641
        },
        "feet" : {
          "estimated_diameter_min" : 1515.4444719902,
          "estimated_diameter_max" : 3388.6368554964
        }
      },
      "is_potentially_hazardous_asteroid" : false,
      "close_approach_data" : [ {
        "close_approach_date" : "1996-02-15",
        "epoch_date_close_approach" : 824371200000,
        "relative_velocity" : {
          "kilometers_per_second" : "31.3915350379",
          "kilometers_per_hour" : "113009.5261364026",
          "miles_per_hour" : "70219.7247262553"
        },
        "miss_distance" : {
          "astronomical" : "0.4209516294",
          "lunar" : "163.7501831055",
          "kilometers" : "62973468",
          "miles" : "39129900"
        },
        "orbiting_body" : "Earth"
      } ],
      "orbital_data" : {
        "orbit_id" : "37",
        "orbit_determination_date" : "2017-04-06 09:21:03",
        "orbit_uncertainty" : "1",
        "minimum_orbit_intersection" : ".0513984",
        "jupiter_tisserand_invariant" : "7.009",
        "epoch_osculation" : "2458000.5",
        "eccentricity" : ".4870175316009247",
        "semi_major_axis" : ".8124996321549045",
        "inclination" : "28.86867583079357",
        "ascending_node_longitude" : "166.1939032301723",
        "orbital_period" : "267.5057899499338",
        "perihelion_distance" : ".4167980668761637",
        "perihelion_argument" : "131.4820293780327",
        "aphelion_distance" : "1.208201197433645",
        "perihelion_time" : "2457939.259566415103",
        "mean_anomaly" : "82.41524826318378",
        "mean_motion" : "1.345765263874764",
        "equinox" : "J2000"
      }
    }, {
      "links" : {
        "self" : "https://api.nasa.gov/neo/rest/v1/neo/3008376?api_key=t0TVs3DtDT2H8Oy2Zy8m2eVrNsAVKAexjcZXUckd"
      },
      "neo_reference_id" : "3008376",
      "name" : "(1996 BA1)",
      "nasa_jpl_url" : "http://ssd.jpl.nasa.gov/sbdb.cgi?sstr=3008376",
      "absolute_magnitude_h" : 20.6,
      "estimated_diameter" : {
        "kilometers" : {
          "estimated_diameter_min" : 0.2016299194,
          "estimated_diameter_max" : 0.4508582062
        },
        "meters" : {
          "estimated_diameter_min" : 201.6299194428,
          "estimated_diameter_max" : 450.8582061718
        },
        "miles" : {
          "estimated_diameter_min" : 0.1252869847,
          "estimated_diameter_max" : 0.2801502144
        },
        "feet" : {
          "estimated_diameter_min" : 661.5155049046,
          "estimated_diameter_max" : 1479.1936371367
        }
      },
      "is_potentially_hazardous_asteroid" : false,
      "close_approach_data" : [ {
        "close_approach_date" : "1996-02-15",
        "epoch_date_close_approach" : 824371200000,
        "relative_velocity" : {
          "kilometers_per_second" : "3.6966578525",
          "kilometers_per_hour" : "13307.9682689738",
          "miles_per_hour" : "8269.053950241"
        },
        "miss_distance" : {
          "astronomical" : "0.2684042145",
          "lunar" : "104.4092407227",
          "kilometers" : "40152700",
          "miles" : "24949730"
        },
        "orbiting_body" : "Earth"
      } ],
      "orbital_data" : {
        "orbit_id" : "21",
        "orbit_determination_date" : "2017-04-06 09:18:06",
        "orbit_uncertainty" : "1",
        "minimum_orbit_intersection" : ".261067",
        "jupiter_tisserand_invariant" : "3.760",
        "epoch_osculation" : "2458000.5",
        "eccentricity" : ".3720973794956973",
        "semi_major_axis" : "1.984894009177785",
        "inclination" : "6.65477579362635",
        "ascending_node_longitude" : "321.3535010690507",
        "orbital_period" : "1021.420119814094",
        "perihelion_distance" : "1.246320149786023",
        "perihelion_argument" : "178.9564441898484",
        "aphelion_distance" : "2.723467868569548",
        "perihelion_time" : "2458292.340744285206",
        "mean_anomaly" : "257.1405928818041",
        "mean_motion" : ".3524504687312431",
        "equinox" : "J2000"
      }
    }, {
      "links" : {
        "self" : "https://api.nasa.gov/neo/rest/v1/neo/3555410?api_key=t0TVs3DtDT2H8Oy2Zy8m2eVrNsAVKAexjcZXUckd"
      },
      "neo_reference_id" : "3555410",
      "name" : "(2011 AW55)",
      "nasa_jpl_url" : "http://ssd.jpl.nasa.gov/sbdb.cgi?sstr=3555410",
      "absolute_magnitude_h" : 20.7,
      "estimated_diameter" : {
        "kilometers" : {
          "estimated_diameter_min" : 0.1925550782,
          "estimated_diameter_max" : 0.4305662442
        },
        "meters" : {
          "estimated_diameter_min" : 192.5550781879,
          "estimated_diameter_max" : 430.566244241
        },
        "miles" : {
          "estimated_diameter_min" : 0.1196481415,
          "estimated_diameter_max" : 0.2675413778
        },
        "feet" : {
          "estimated_diameter_min" : 631.7424027221,
          "estimated_diameter_max" : 1412.6189567557
        }
      },
      "is_potentially_hazardous_asteroid" : false,
      "close_approach_data" : [ {
        "close_approach_date" : "1996-02-15",
        "epoch_date_close_approach" : 824371200000,
        "relative_velocity" : {
          "kilometers_per_second" : "20.0234849164",
          "kilometers_per_hour" : "72084.5456991127",
          "miles_per_hour" : "44790.5334095403"
        },
        "miss_distance" : {
          "astronomical" : "0.1800713257",
          "lunar" : "70.047744751",
          "kilometers" : "26938286",
          "miles" : "16738675"
        },
        "orbiting_body" : "Earth"
      } ],
      "orbital_data" : {
        "orbit_id" : "12",
        "orbit_determination_date" : "2017-04-06 08:54:56",
        "orbit_uncertainty" : "1",
        "minimum_orbit_intersection" : ".176403",
        "jupiter_tisserand_invariant" : "5.440",
        "epoch_osculation" : "2458000.5",
        "eccentricity" : ".5170626669234848",
        "semi_major_axis" : "1.10534583524958",
        "inclination" : "21.90469663361229",
        "ascending_node_longitude" : "304.2226333948637",
        "orbital_period" : "424.4687239539472",
        "perihelion_distance" : ".5338127698026653",
        "perihelion_argument" : "321.9297945544304",
        "aphelion_distance" : "1.676878900696495",
        "perihelion_time" : "2457833.891884808457",
        "mean_anomaly" : "141.3035120944806",
        "mean_motion" : ".8481190242866004",
        "equinox" : "J2000"
      }
    }, {
      "links" : {
        "self" : "https://api.nasa.gov/neo/rest/v1/neo/3699893?api_key=t0TVs3DtDT2H8Oy2Zy8m2eVrNsAVKAexjcZXUckd"
      },
      "neo_reference_id" : "3699893",
      "name" : "(2014 WA366)",
      "nasa_jpl_url" : "http://ssd.jpl.nasa.gov/sbdb.cgi?sstr=3699893",
      "absolute_magnitude_h" : 26.9,
      "estimated_diameter" : {
        "kilometers" : {
          "estimated_diameter_min" : 0.0110803882,
          "estimated_diameter_max" : 0.0247765013
        },
        "meters" : {
          "estimated_diameter_min" : 11.0803882126,
          "estimated_diameter_max" : 24.7765012606
        },
        "miles" : {
          "estimated_diameter_min" : 0.0068850319,
          "estimated_diameter_max" : 0.0153953994
        },
        "feet" : {
          "estimated_diameter_min" : 36.3529808636,
          "estimated_diameter_max" : 81.2877363957
        }
      },
      "is_potentially_hazardous_asteroid" : false,
      "close_approach_data" : [ {
        "close_approach_date" : "1996-02-15",
        "epoch_date_close_approach" : 824371200000,
        "relative_velocity" : {
          "kilometers_per_second" : "2.6838539737",
          "kilometers_per_hour" : "9661.8743052747",
          "miles_per_hour" : "6003.5129537414"
        },
        "miss_distance" : {
          "astronomical" : "0.1167908068",
          "lunar" : "45.4316253662",
          "kilometers" : "17471656",
          "miles" : "10856384"
        },
        "orbiting_body" : "Earth"
      } ],
      "orbital_data" : {
        "orbit_id" : "15",
        "orbit_determination_date" : "2017-04-06 08:37:02",
        "orbit_uncertainty" : "4",
        "minimum_orbit_intersection" : ".00731584",
        "jupiter_tisserand_invariant" : "5.920",
        "epoch_osculation" : "2458000.5",
        "eccentricity" : ".07149913511839492",
        "semi_major_axis" : "1.034328511393399",
        "inclination" : "1.559152806564945",
        "ascending_node_longitude" : "67.10073151473601",
        "orbital_period" : "384.2254883138502",
        "perihelion_distance" : ".9603749174004743",
        "perihelion_argument" : "287.6334779726613",
        "aphelion_distance" : "1.108282105386324",
        "perihelion_time" : "2458073.061580762292",
        "mean_anomaly" : "292.0134403652899",
        "mean_motion" : ".9369498144952272",
        "equinox" : "J2000"
      }
    } ]
  }
}